$$SOE
2459580.500000000, A.D. 2022-Jan-01 00:00:00.0000, -4.552046293408903E+08, 3.240097902061194E+08, 1.506730242795643E+07,
2459587.500000000, A.D. 2022-Jan-08 00:00:00.0000, -4.605596979103907E+08, 3.173463378453907E+08, 1.512132377192611E+07,
2459594.500000000, A.D. 2022-Jan-15 00:00:00.0000, -4.657871777990317E+08, 3.105949347744883E+08, 1.517115515213928E+07,
2459601.500000000, A.D. 2022-Jan-22 00:00:00.0000, -4.708859890738032E+08, 3.037576996605338E+08, 1.521679452570195E+07,
2459608.500000000, A.D. 2022-Jan-29 00:00:00.0000, -4.758550761268870E+08, 2.968367542654441E+08, 1.525824058011940E+07,
2459615.500000000, A.D. 2022-Feb-05 00:00:00.0000, -4.806934094180932E+08, 2.898342229174935E+08, 1.529549287116808E+07,
2459622.500000000, A.D. 2022-Feb-12 00:00:00.0000, -4.853999850619184E+08, 2.827522309283924E+08, 1.532855167635983E+07,
2459629.500000000, A.D. 2022-Feb-19 00:00:00.0000, -4.899738235830984E+08, 2.755929043226395E+08, 1.535741787900624E+07,
2459636.500000000, A.D. 2022-Feb-26 00:00:00.0000, -4.944139691527115E+08, 2.683583701548702E+08, 1.538209294385038E+07,
2459643.500000000, A.D. 2022-Mar-05 00:00:00.0000, -4.987194891462891E+08, 2.610507567978417E+08, 1.540257891896476E+07,
2459650.500000000, A.D. 2022-Mar-12 00:00:00.0000, -5.028894738026347E+08, 2.536721941351224E+08, 1.541887843790661E+07,
2459657.500000000, A.D. 2022-Mar-19 00:00:00.0000, -5.069230359127040E+08, 2.462248136865363E+08, 1.543099471760015E+07,
2459664.500000000, A.D. 2022-Mar-26 00:00:00.0000, -5.108193105163667E+08, 2.387107486605716E+08, 1.543893154911895E+07,
2459671.500000000, A.D. 2022-Apr-02 00:00:00.0000, -5.145774545392619E+08, 2.311321338780738E+08, 1.544269327032523E+07,
2459678.500000000, A.D. 2022-Apr-09 00:00:00.0000, -5.181966460975005E+08, 2.234911055721205E+08, 1.544228469559465E+07,
2459685.500000000, A.D. 2022-Apr-16 00:00:00.0000, -5.216760831127633E+08, 2.157898017180212E+08, 1.543771102314188E+07,
2459692.500000000, A.D. 2022-Apr-23 00:00:00.0000, -5.250149825065858E+08, 2.080303639773744E+08, 1.542897792479831E+07,
2459699.500000000, A.D. 2022-Apr-30 00:00:00.0000, -5.282125818445174E+08, 2.002149390109148E+08, 1.541609180617140E+07,
2459706.500000000, A.D. 2022-May-07 00:00:00.0000, -5.312681403673046E+08, 1.923456771870600E+08, 1.539905979492155E+07,
2459713.500000000, A.D. 2022-May-14 00:00:00.0000, -5.341809380184697E+08, 1.844247317239411E+08, 1.537788957800514E+07,
2459720.500000000, A.D. 2022-May-21 00:00:00.0000, -5.369502744990853E+08, 1.764542590226233E+08, 1.535258933616515E+07,
2459727.500000000, A.D. 2022-May-28 00:00:00.0000, -5.395754688291373E+08, 1.684364192324217E+08, 1.532316774120539E+07,
2459734.500000000, A.D. 2022-Jun-04 00:00:00.0000, -5.420558591385978E+08, 1.603733767355684E+08, 1.528963396508047E+07,
2459741.500000000, A.D. 2022-Jun-11 00:00:00.0000, -5.443908025434138E+08, 1.522673005533956E+08, 1.525199768775608E+07,
2459748.500000000, A.D. 2022-Jun-18 00:00:00.0000, -5.465796750675887E+08, 1.441203646872193E+08, 1.521026910144003E+07,
2459755.500000000, A.D. 2022-Jun-25 00:00:00.0000, -5.486218715818571E+08, 1.359347483606729E+08, 1.516445890585414E+07,
2459762.500000000, A.D. 2022-Jul-02 00:00:00.0000, -5.505168056248893E+08, 1.277126360977105E+08, 1.511457827698443E+07,
2459769.500000000, A.D. 2022-Jul-09 00:00:00.0000, -5.522639087166731E+08, 1.194562178131879E+08, 1.506063878810490E+07,
2459776.500000000, A.D. 2022-Jul-16 00:00:00.0000, -5.538626292191442E+08, 1.111676899985781E+08, 1.500265237677580E+07,
2459783.500000000, A.D. 2022-Jul-23 00:00:00.0000, -5.553124329427814E+08, 1.028492580800797E+08, 1.494063156597671E+07,
2459790.500000000, A.D. 2022-Jul-30 00:00:00.0000, -5.566128054160675E+08, 9.450313659512475E+07, 1.487458965776515E+07,
2459797.500000000, A.D. 2022-Aug-06 00:00:00.0000, -5.577632522191628E+08, 8.613154783582683E+07, 1.480454062259591E+07,
2459804.500000000, A.D. 2022-Aug-13 00:00:00.0000, -5.587632982041767E+08, 7.773672171344234E+07, 1.473049898519197E+07,
2459811.500000000, A.D. 2022-Aug-20 00:00:00.0000, -5.596124871715499E+08, 6.932089633956383E+07, 1.465247980999634E+07,
2459818.500000000, A.D. 2022-Aug-27 00:00:00.0000, -5.603103819353197E+08, 6.088631859708305E+07, 1.457049872077595E+07,
2459825.500000000, A.D. 2022-Sep-03 00:00:00.0000, -5.608565645300393E+08, 5.243524459034417E+07, 1.448457192278640E+07,
2459832.500000000, A.D. 2022-Sep-10 00:00:00.0000, -5.612506364696796E+08, 4.396993999837314E+07, 1.439471622132937E+07,
2459839.500000000, A.D. 2022-Sep-17 00:00:00.0000, -5.614922190294156E+08, 3.549268032941069E+07, 1.430094903392380E+07,
2459846.500000000, A.D. 2022-Sep-24 00:00:00.0000, -5.615809534900385E+08, 2.700575102590299E+07, 1.420328838637365E+07,
2459853.500000000, A.D. 2022-Oct-01 00:00:00.0000, -5.615165011048884E+08, 1.851144739771461E+07, 1.410175286879895E+07,
2459860.500000000, A.D. 2022-Oct-08 00:00:00.0000, -5.612985423814738E+08, 1.001207490552416E+07, 1.399636155677065E+07,
2459867.500000000, A.D. 2022-Oct-15 00:00:00.0000, -5.609267766089170E+08, 1.509950992962022E+06, 1.388713408078313E+07,
2459874.500000000, A.D. 2022-Oct-22 00:00:00.0000, -5.604009238129520E+08, -6.992593217603819E+06, 1.377409090626150E+07,
2459881.500000000, A.D. 2022-Oct-29 00:00:00.0000, -5.597207266419382E+08, -1.549321395994872E+07, 1.365725338275403E+07,
2459888.500000000, A.D. 2022-Nov-05 00:00:00.0000, -5.588859500853302E+08, -2.398955584855323E+07, 1.353664359353695E+07,
2459895.500000000, A.D. 2022-Nov-12 00:00:00.0000, -5.578963809896548E+08, -3.247925162609318E+07, 1.341228428919672E+07,
2459902.500000000, A.D. 2022-Nov-19 00:00:00.0000, -5.567518280922792E+08, -4.095992158863981E+07, 1.328419889297187E+07,
2459909.500000000, A.D. 2022-Nov-26 00:00:00.0000, -5.554521223119464E+08, -4.942917308616101E+07, 1.315241152116465E+07,
2459916.500000000, A.D. 2022-Dec-03 00:00:00.0000, -5.539971171308093E+08, -5.788460010988498E+07, 1.301694700236848E+07,
2459923.500000000, A.D. 2022-Dec-10 00:00:00.0000, -5.523866890228039E+08, -6.632378294799575E+07, 1.287783089283660E+07,
2459930.500000000, A.D. 2022-Dec-17 00:00:00.0000, -5.506207379038849E+08, -7.474428793502295E+07, 1.273508948369010E+07,
2459937.500000000, A.D. 2022-Dec-24 00:00:00.0000, -5.486991874950246E+08, -8.314366736126126E+07, 1.258874978458534E+07,
2459944.500000000, A.D. 2022-Dec-31 00:00:00.0000, -5.466219852406527E+08, -9.151945943525010E+07, 1.243883945988022E+07,
2459951.500000000, A.D. 2023-Jan-07 00:00:00.0000, -5.443891016600353E+08, -9.986918733751288E+07, 1.228538678475640E+07,
2459958.500000000, A.D. 2023-Jan-14 00:00:00.0000, -5.420005310988284E+08, -1.081903568696146E+08, 1.212842084237429E+07,
2459965.500000000, A.D. 2023-Jan-21 00:00:00.0000, -5.394562945265405E+08, -1.164804558723266E+08, 1.196797176196261E+07,
2459972.500000000, A.D. 2023-Jan-28 00:00:00.0000, -5.367564407133526E+08, -1.247369556090127E+08, 1.180407064552107E+07,
2459979.500000000, A.D. 2023-Feb-04 00:00:00.0000, -5.339010459952045E+08, -1.329573110866101E+08, 1.163674944985157E+07,
2459986.500000000, A.D. 2023-Feb-11 00:00:00.0000, -5.308902144221510E+08, -1.411389605084996E+08, 1.146604097287809E+07,
2459993.500000000, A.D. 2023-Feb-18 00:00:00.0000, -5.277240783536994E+08, -1.492793246836115E+08, 1.129197888286381E+07,
2460000.500000000, A.D. 2023-Feb-25 00:00:00.0000, -5.244027992392964E+08, -1.573758065545561E+08, 1.111459775331861E+07,
2460007.500000000, A.D. 2023-Mar-04 00:00:00.0000, -5.209265684826729E+08, -1.654257908266801E+08, 1.093393309593185E+07,
2460014.500000000, A.D. 2023-Mar-11 00:00:00.0000, -5.172956083621066E+08, -1.734266436981807E+08, 1.075002138915459E+07,
2460021.500000000, A.D. 2023-Mar-18 00:00:00.0000, -5.135101729600959E+08, -1.813757127414321E+08, 1.056290009429216E+07,
2460028.500000000, A.D. 2023-Mar-25 00:00:00.0000, -5.095705488996344E+08, -1.892703269834516E+08, 1.037260763683057E+07,
2460035.500000000, A.D. 2023-Apr-01 00:00:00.0000, -5.054770554629481E+08, -1.971077967928280E+08, 1.017918334643210E+07,
2460042.500000000, A.D. 2023-Apr-08 00:00:00.0000, -5.012300447081708E+08, -2.048854123489354E+08, 9.982667512347676E+06,
2460049.500000000, A.D. 2023-Apr-15 00:00:00.0000, -4.968299039210023E+08, -2.126004418009309E+08, 9.783101678327888E+06,
2460056.500000000, A.D. 2023-Apr-22 00:00:00.0000, -4.922770585930923E+08, -2.202501321703999E+08, 9.580528761731952E+06,
2460063.500000000, A.D. 2023-Apr-29 00:00:00.0000, -4.875719731933767E+08, -2.278317107462772E+08, 9.374992930146873E+06,
2460070.500000000, A.D. 2023-May-06 00:00:00.0000, -4.827151514929833E+08, -2.353423851920277E+08, 9.166539542561352E+06,
2460077.500000000, A.D. 2023-May-13 00:00:00.0000, -4.777071374206361E+08, -2.427793432603391E+08, 8.955215171561450E+06,
2460084.500000000, A.D. 2023-May-20 00:00:00.0000, -4.725485162152337E+08, -2.501397526085925E+08, 8.741067644727826E+06,
2460091.500000000, A.D. 2023-May-27 00:00:00.0000, -4.672399156834239E+08, -2.574207607465111E+08, 8.524146084846795E+06,
2460098.500000000, A.D. 2023-Jun-03 00:00:00.0000, -4.617820075056783E+08, -2.646194950914703E+08, 8.304500945540890E+06,
2460105.500000000, A.D. 2023-Jun-10 00:00:00.0000, -4.561755085675024E+08, -2.717330631465112E+08, 8.082184038770065E+06,
2460112.500000000, A.D. 2023-Jun-17 00:00:00.0000, -4.504211822265603E+08, -2.787585528627616E+08, 7.857248540861756E+06,
2460119.500000000, A.D. 2023-Jun-24 00:00:00.0000, -4.445198391954146E+08, -2.856930331329033E+08, 7.629748951988965E+06,
2460126.500000000, A.D. 2023-Jul-01 00:00:00.0000, -4.384723377867404E+08, -2.925335535903969E+08, 7.399741053291619E+06,
2460133.500000000, A.D. 2023-Jul-08 00:00:00.0000, -4.322795851952771E+08, -2.992771428954648E+08, 7.167282082123160E+06,
2460140.500000000, A.D. 2023-Jul-15 00:00:00.0000, -4.259425410940140E+08, -3.059208083410803E+08, 6.932431011046618E+06,
2460147.500000000, A.D. 2023-Jul-22 00:00:00.0000, -4.194622200249022E+08, -3.124615378169513E+08, 6.695248522908643E+06,
$$EOE